[{"OBJECT_NAME":"STARLINK-30767","OBJECT_ID":"2023-162J","EPOCH":"2026-03-09T11:39:41.183712","MEAN_MOTION":15.27579061,"ECCENTRICITY":0.00020936,"INCLINATION":43.0034,"RA_OF_ASC_NODE":130.4317,"ARG_OF_PERICENTER":288.3011,"MEAN_ANOMALY":71.7612,"EPHEMERIS_TYPE":0,"CLASSIFICATION_TYPE":"U","NORAD_CAT_ID":58126,"ELEMENT_SET_NO":999,"REV_AT_EPOCH":13231,"BSTAR":-7.7393505e-5,"MEAN_MOTION_DOT":-2.392e-5,"MEAN_MOTION_DDOT":0},{"OBJECT_NAME":"ARIANE 5 R\/B","OBJECT_ID":"2014-078C","EPOCH":"2026-03-09T21:54:00.740448","MEAN_MOTION":2.93558038,"ECCENTRICITY":0.67956113,"INCLINATION":6.4159,"RA_OF_ASC_NODE":49.1813,"ARG_OF_PERICENTER":86.9674,"MEAN_ANOMALY":342.6933,"EPHEMERIS_TYPE":0,"CLASSIFICATION_TYPE":"U","NORAD_CAT_ID":40334,"ELEMENT_SET_NO":999,"REV_AT_EPOCH":10431,"BSTAR":0.0011623512,"MEAN_MOTION_DOT":0.00010761,"MEAN_MOTION_DDOT":0}]
